*******************************************************************************
Ephemeris / WWW_USER Tue Jun  9 11:19:10 2020 Pasadena, USA      / Horizons
*******************************************************************************
Target body name: Saturn (699)                    {source: sat427l_merged_DE438}
Center body name: Solar System Barycenter (0)     {source: DE431mx}
Center-site name: BODY CENTER
*******************************************************************************
Start time      : A.D. 2000-Jul-09 00:00:00.0000 TDB
Stop  time      : A.D. 2024-Jul-09 00:00:00.0000 TDB
Step-size       : 1440 minutes
*******************************************************************************
Center geodetic : 0.00000000,0.00000000,0.0000000 {E-lon(deg),Lat(deg),Alt(km)}
Center cylindric: 0.00000000,0.00000000,0.0000000 {E-lon(deg),Dxy(km),Dz(km)}
Center radii    : (undefined)                                                  
Output units    : AU-D
Output type     : GEOMETRIC cartesian states
Output format   : 3 (position, velocity, LT, range, range-rate)
Reference frame : Ecliptic of J2000.0
*******************************************************************************
            JDTDB,            Calendar Date (TDB),                      X,                      Y,                      Z,                     VX,                     VY,                     VZ,                     LT,                     RG,                     RR,
**************************************************************************************************************************************************************************************************************************************************************************
$$SOE
2458184.500000000, A.D. 2018-Mar-07 00:00:00.0000,  3.904947463080643E-01, -1.005027978888163E+01,  1.592007897200876E-01,  5.267318701571238E-03,  1.985798587672414E-04, -2.130329874396753E-04,  5.809664909636030E-02,  1.005912296739354E+01,  2.700247257899990E-06,
2458185.500000000, A.D. 2018-Mar-08 00:00:00.0000,  3.957620502973487E-01, -1.005007987476923E+01,  1.589877945424585E-01,  5.267299603188257E-03,  2.012589698441552E-04, -2.129639432160730E-04,  5.809666498195887E-02,  1.005912571789967E+01,  2.790491060443399E-06,
2458186.500000000, A.D. 2018-Mar-09 00:00:00.0000,  4.010293642025057E-01, -1.004987726661426E+01,  1.587748579685985E-01,  5.267349495054918E-03,  2.039569224064004E-04, -2.129110614615898E-04,  5.809668130868043E-02,  1.005912854478388E+01,  2.864548106903934E-06,
2458187.500000000, A.D. 2018-Mar-10 00:00:00.0000,  4.062967873867140E-01, -1.004967193374275E+01,  1.585619543438945E-01,  5.267507530631358E-03,  2.067215706572011E-04, -2.129036249136607E-04,  5.809669792138542E-02,  1.005913142118458E+01,  2.875894988688206E-06,
2458188.500000000, A.D. 2018-Mar-11 00:00:00.0000,  4.115644131135339E-01, -1.004946378438115E+01,  1.583490275322576E-01,  5.267751424949734E-03,  2.096131863766384E-04, -2.129695658674931E-04,  5.809671430942110E-02,  1.005913425868500E+01,  2.763197513103308E-06,
2458189.500000000, A.D. 2018-Mar-12 00:00:00.0000,  4.168322497384421E-01, -1.004925264727043E+01,  1.581359876975536E-01,  5.267896872966867E-03,  2.126689336383446E-04, -2.131115323703409E-04,  5.809672948134899E-02,  1.005913688562288E+01,  2.481809146680273E-06,
2458190.500000000, A.D. 2018-Mar-13 00:00:00.0000,  4.221001853807838E-01, -1.004903844050571E+01,  1.579228037940705E-01,  5.267973462666232E-03,  2.157555162087159E-04, -2.132620026162205E-04,  5.809674293771418E-02,  1.005913921552029E+01,  2.167001089954338E-06,
2458191.500000000, A.D. 2018-Mar-14 00:00:00.0000,  4.273681616479353E-01, -1.004882110230884E+01,  1.577094493967544E-01,  5.267951086342088E-03,  2.189245665684388E-04, -2.134457345067434E-04,  5.809675430744603E-02,  1.005914118412833E+01,  1.765395025709936E-06,
2458192.500000000, A.D. 2018-Mar-15 00:00:00.0000,  4.326360586541781E-01, -1.004860059969045E+01,  1.574959197449348E-01,  5.267834587076516E-03,  2.220865379409475E-04, -2.136160123620008E-04,  5.809676337160814E-02,  1.005914275353935E+01,  1.367176612969968E-06,
2458193.500000000, A.D. 2018-Mar-16 00:00:00.0000,  4.379037898599375E-01, -1.004837692657332E+01,  1.572822200137273E-01,  5.267612889962502E-03,  2.252534956906576E-04, -2.137786123804694E-04,  5.809677007439639E-02,  1.005914391409116E+01,  9.595294229239254E-07,
2458194.500000000, A.D. 2018-Mar-17 00:00:00.0000,  4.431712523629943E-01, -1.004815009713836E+01,  1.570683677399991E-01,  5.267285870407554E-03,  2.284006155925854E-04, -2.139212620971180E-04,  5.809677447280186E-02,  1.005914467565146E+01,  5.672196504598105E-07,
2458195.500000000, A.D. 2018-Mar-18 00:00:00.0000,  4.484383183876137E-01, -1.004792017105712E+01,  1.568544055028434E-01,  5.266844610411854E-03,  2.314201475803239E-04, -2.139865714297365E-04,  5.809677688086186E-02,  1.005914509259413E+01,  2.981401466822429E-07,
2458196.500000000, A.D. 2018-Mar-19 00:00:00.0000,  4.537049722215412E-01, -1.004768729291644E+01,  1.566404101374378E-01,  5.266469355802644E-03,  2.343392385967731E-04, -2.140066915910238E-04,  5.809677813317662E-02,  1.005914530942571E+01,  1.326004263304954E-07,
2458197.500000000, A.D. 2018-Mar-20 00:00:00.0000,  4.589712390869454E-01, -1.004745151085999E+01,  1.564264034191063E-01,  5.266065897921304E-03,  2.372018850959100E-04, -2.139948534043998E-04,  5.809677851353690E-02,  1.005914537528305E+01,  2.225897132490491E-08,
2458198.500000000, A.D. 2018-Mar-21 00:00:00.0000,  4.642371285608340E-01, -1.004721291594780E+01,  1.562124314846890E-01,  5.265717024957661E-03,  2.399797049801251E-04, -2.139453730215259E-04,  5.809677855160195E-02,  1.005914538187381E+01, -6.727098325466176E-10,
2458199.500000000, A.D. 2018-Mar-22 00:00:00.0000,  4.695026933998617E-01, -1.004697158045070E+01,  1.559985257939713E-01,  5.265429211630352E-03,  2.426800151142271E-04, -2.138617938517234E-04,  5.809677867902740E-02,  1.005914540393684E+01,  5.684948206708614E-08,
2458200.500000000, A.D. 2018-Mar-23 00:00:00.0000,  4.747680208749427E-01, -1.004672757010576E+01,  1.557847114338446E-01,  5.265240359301826E-03,  2.453328287200472E-04, -2.137643164147699E-04,  5.809677929921388E-02,  1.005914551131880E+01,  1.664592994958230E-07,
2458201.500000000, A.D. 2018-Mar-24 00:00:00.0000,  4.800332263648919E-01, -1.004648093230890E+01,  1.555710015091547E-01,  5.265210777792718E-03,  2.479456096772407E-04, -2.136608850955440E-04,  5.809678071746120E-02,  1.005914575688071E+01,  3.236695723454039E-07,
2458202.500000000, A.D. 2018-Mar-25 00:00:00.0000,  4.852984900976789E-01, -1.004623162495590E+01,  1.553573564775991E-01,  5.265309394925189E-03,  2.506918142223558E-04, -2.136402687397402E-04,  5.809678273757021E-02,  1.005914610665174E+01,  3.527217588779629E-07,
2458203.500000000, A.D. 2018-Mar-26 00:00:00.0000,  4.905638468682300E-01, -1.004597953809962E+01,  1.551437156264485E-01,  5.265419551293384E-03,  2.534897220936501E-04, -2.136470271385520E-04,  5.809678473141325E-02,  1.005914645187497E+01,  3.306359619473013E-07,
2458204.500000000, A.D. 2018-Mar-27 00:00:00.0000,  4.958293444496337E-01, -1.004572460877211E+01,  1.549300415924875E-01,  5.265575934009161E-03,  2.563858864100566E-04, -2.137096859177328E-04,  5.809678634812893E-02,  1.005914673180060E+01,  2.122450926649389E-07,
2458205.500000000, A.D. 2018-Mar-28 00:00:00.0000,  5.010949947332158E-01, -1.004546673106258E+01,  1.547162787354892E-01,  5.265721260880106E-03,  2.593877992326174E-04, -2.138252408172212E-04,  5.809678697787537E-02,  1.005914684083782E+01, -1.264378664224368E-08,
2458206.500000000, A.D. 2018-Mar-29 00:00:00.0000,  5.063607590840977E-01, -1.004520579360879E+01,  1.545023732458922E-01,  5.265787727281385E-03,  2.624965776954959E-04, -2.139884727121024E-04,  5.809678596509103E-02,  1.005914666547965E+01, -3.484986654643562E-07,
2458207.500000000, A.D. 2018-Mar-30 00:00:00.0000,  5.116265491613788E-01, -1.004494172095632E+01,  1.542882953185594E-01,  5.265778752434754E-03,  2.656702520344318E-04, -2.141775108101320E-04,  5.809678284847451E-02,  1.005914612585422E+01, -7.530529794313349E-07,
2458208.500000000, A.D. 2018-Mar-31 00:00:00.0000,  5.168922394916529E-01, -1.004467443484086E+01,  1.540740160671017E-01,  5.265569821773741E-03,  2.688840058855459E-04, -2.143683056086689E-04,  5.809677713858866E-02,  1.005914513721813E+01, -1.207727702180894E-06,
2458209.500000000, A.D. 2018-Apr-01 00:00:00.0000,  5.221576712279185E-01, -1.004440398903073E+01,  1.538595793432397E-01,  5.265293518068790E-03,  2.720027189093252E-04, -2.145028270220181E-04,  5.809676910241824E-02,  1.005914374579836E+01, -1.570223892457892E-06,
2458210.500000000, A.D. 2018-Apr-02 00:00:00.0000,  5.274228066130543E-01, -1.004413043245815E+01,  1.536450139467789E-01,  5.264961679471655E-03,  2.751049201116137E-04, -2.146234425102271E-04,  5.809675901244107E-02,  1.005914199877297E+01, -1.919115600023443E-06,
2458211.500000000, A.D. 2018-Apr-03 00:00:00.0000,  5.326875734701617E-01, -1.004385380154830E+01,  1.534303459791741E-01,  5.264562283497559E-03,  2.781500884958803E-04, -2.147083259141156E-04,  5.809674705776068E-02,  1.005913992888423E+01, -2.214373042683873E-06,
2458212.500000000, A.D. 2018-Apr-04 00:00:00.0000,  5.379519047828201E-01, -1.004357416746178E+01,  1.532156181156105E-01,  5.264102515702127E-03,  2.810924828106323E-04, -2.147342184231988E-04,  5.809673362994523E-02,  1.005913760393005E+01, -2.409735376060548E-06,
2458213.500000000, A.D. 2018-Apr-05 00:00:00.0000,  5.432157962797046E-01, -1.004329164129852E+01,  1.530008881781579E-01,  5.263674001476182E-03,  2.839523373055401E-04, -2.147214322115539E-04,  5.809671937090920E-02,  1.005913513505450E+01, -2.520876916160641E-06,
